STARLINK-31127          
1 58765U 24011A   25047.53576054 -.00000105  00000+0  12039-4 0  9997
2 58765  53.1637 341.7657 0002080 107.5256 252.5961 15.04924350 61513
STARLINK-31114          
1 58766U 24011B   25048.21585470  .00003872  00000+0  28962-3 0  9990
2 58766  53.1616 338.1977 0001268  93.3356 266.7778 15.04939242 61504
STARLINK-31140          
1 58767U 24011C   25048.06383633  .00001736  00000+0  14062-3 0  9994
2 58767  53.1610 339.3693 0001483  83.1906 276.9252 15.04928676 61570
STARLINK-31145          
1 58768U 24011D   25048.12705699  .00000564  00000+0  58760-4 0  9994
2 58768  53.1615 339.0565 0001230  94.1723 265.9408 15.04917954 61488
STARLINK-31146          
1 58769U 24011E   25048.12275715  .00011804  00000+0  84324-3 0  9999
2 58769  53.1616 339.0252 0001363  79.1800 280.9343 15.04894697 61606
STARLINK-31143          
1 58770U 24011F   25048.18594226 -.00001152  00000+0 -61110-4 0  9994
2 58770  53.1607 338.7127 0001276  93.5617 266.5518 15.04921146 61495
STARLINK-31135          
1 58771U 24011G   25048.18271503  .00000031  00000+0  21543-4 0  9994
2 58771  53.1609 338.6916 0001407  86.1250 273.9901 15.04922510 61483
STARLINK-31136          
1 58772U 24011H   25048.11305624  .00004944  00000+0  36417-3 0  9992
2 58772  53.1616 338.9719 0001314 103.8267 256.2869 15.04955350 61584
STARLINK-31073          
1 58773U 24011J   25048.17628028  .00000297  00000+0  40157-4 0  9999
2 58773  53.1631 338.6588 0001669  92.0874 268.0307 15.04924479 61495
STARLINK-31122          
1 58774U 24011K   25048.23946487  .00003050  00000+0  23226-3 0  9996
2 58774  53.1611 338.3369 0001571  98.1269 261.9899 15.04933613 61606
STARLINK-31123          
1 58775U 24011L   25047.97060267 -.00001037  00000+0 -53081-4 0  9998
2 58775  53.1601 339.5009 0001373  79.8884 280.2261 15.04925365 61588
STARLINK-31117          
1 58776U 24011M   25048.10020314  .00000678  00000+0  66749-4 0  9997
2 58776  53.1623 338.8893 0001431  91.1476 268.9678 15.04928388 61476
STARLINK-31132          
1 58777U 24011N   25047.90486757 -.00000766  00000+0 -13745-4 0  9990
2 58777  53.1597 275.4694 0001179  86.1900 273.9235 15.30197872 62490
STARLINK-31120          
1 58778U 24011P   25048.08949293 -.00000660  00000+0 -26785-4 0  9991
2 58778  53.1620 338.8218 0001330  91.0821 269.0321 15.04905855 61478
STARLINK-31142          
1 58779U 24011Q   25048.49224669  .00001581  00000+0  12981-3 0  9993
2 58779  53.1626 337.0689 0001670  95.9445 264.1735 15.04929165 61644
STARLINK-31099          
1 58781U 24011S   25048.21263042  .00005036  00000+0  37069-3 0  9997
2 58781  53.1615 338.1668 0001294  87.7808 272.3330 15.04948735 61497
STARLINK-31060          
1 58782U 24011T   25048.28278262  .00039601  00000+0  37279-3 0  9993
2 58782  53.1593 251.3599 0001621 100.6718 259.4482 15.66729132 62740
STARLINK-31047          
1 58783U 24011U   25047.94764262  .00032687  00000+0  21337-2 0  9990
2 58783  53.1614 338.6619 0002546 102.5882 257.5394 15.07586315 61599
STARLINK-31039          
1 58784U 24011V   25048.07661764 -.00002773  00000+0 -17447-3 0  9992
2 58784  53.1623 338.7362 0001353  92.8249 267.2895 15.04910297 61477
STARLINK-31034          
1 58785U 24011W   25048.58335648  .01375672  00000+0  28709-1 0  9999
2 58785  53.1584 266.3660 0000776 141.1009 120.5248 15.42221027 62552
STARLINK-31024          
1 58786U 24011X   25048.07337955 -.00000218  00000+0  41835-5 0  9997
2 58786  53.1633 338.7131 0001755 109.8463 250.2716 15.04928061 61479
STARLINK-31189          
1 58787U 24012A   25047.66116745 -.00000082  00000+0  67187-5 0  9992
2 58787  43.0023 183.1162 0001731 284.1627  75.9032 15.25909961 62228
STARLINK-31185          
1 58788U 24012B   25048.37894190  .00000890  00000+0  43860-4 0  9996
2 58788  43.0001 179.0465 0001218 282.3680  77.7035 15.25908280 62332
STARLINK-31166          
1 58789U 24012C   25047.67459777 -.00001646  00000+0 -53110-4 0  9998
2 58789  43.0039 182.3438 0001081 283.1883  76.8848 15.25910482 62231
STARLINK-31187          
1 58790U 24012D   25047.65438512 -.00001536  00000+0 -48899-4 0  9998
2 58790  43.0015 183.0712 0001415 282.5735  77.4957 15.25904853 62222
STARLINK-31162          
1 58791U 24012E   25048.39252031 -.00000578  00000+0 -12248-4 0  9995
2 58791  42.9999 179.1455 0001089 289.3817  70.6916 15.25897646 62350
STARLINK-31184          
1 58793U 24012G   25047.71305701  .00006118  00000+0  24347-3 0  9991
2 58793  43.0003 182.6592 0000917 271.3544  88.7202 15.25920108 62233
STARLINK-31192          
1 58794U 24012H   25047.66780840  .00005367  00000+0  21489-3 0  9996
2 58794  42.9997 182.2959 0001397 275.4349  84.6343 15.25904134 62230
