OBJECT_NAME,OBJECT_ID,EPOCH,MEAN_MOTION,ECCENTRICITY,INCLINATION,RA_OF_ASC_NODE,ARG_OF_PERICENTER,MEAN_ANOMALY,EPHEMERIS_TYPE,CLASSIFICATION_TYPE,NORAD_CAT_ID,ELEMENT_SET_NO,REV_AT_EPOCH,BSTAR,MEAN_MOTION_DOT,MEAN_MOTION_DDOT
STARLINK-31127,2024-011A,2025-02-16T12:51:29.710656,15.04924350,.000208,53.1637,341.7657,107.5256,252.5961,0,U,58765,999,6151,.12039E-4,-.105E-5,0
STARLINK-31114,2024-011B,2025-02-17T05:10:49.846080,15.04939242,.0001268,53.1616,338.1977,93.3356,266.7778,0,U,58766,999,6150,.28962E-3,.3872E-4,0
STARLINK-31140,2024-011C,2025-02-17T01:31:55.458912,15.04928676,.0001483,53.1610,339.3693,83.1906,276.9252,0,U,58767,999,6157,.14062E-3,.1736E-4,0
STARLINK-31145,2024-011D,2025-02-17T03:02:57.723936,15.04917954,.000123,53.1615,339.0565,94.1723,265.9408,0,U,58768,999,6148,.5876E-4,.564E-5,0
STARLINK-31146,2024-011E,2025-02-17T02:56:46.217760,15.04894697,.0001363,53.1616,339.0252,79.1800,280.9343,0,U,58769,999,6160,.84324E-3,.11804E-3,0
STARLINK-31143,2024-011F,2025-02-17T04:27:45.411264,15.04921146,.0001276,53.1607,338.7127,93.5617,266.5518,0,U,58770,999,6149,-.6111E-4,-.1152E-4,0
STARLINK-31135,2024-011G,2025-02-17T04:23:06.578592,15.04922510,.0001407,53.1609,338.6916,86.1250,273.9901,0,U,58771,999,6148,.21543E-4,.31E-6,0
STARLINK-31136,2024-011H,2025-02-17T02:42:48.059136,15.04955350,.0001314,53.1616,338.9719,103.8267,256.2869,0,U,58772,999,6158,.36417E-3,.4944E-4,0
STARLINK-31073,2024-011J,2025-02-17T04:13:50.616192,15.04924479,.0001669,53.1631,338.6588,92.0874,268.0307,0,U,58773,999,6149,.40157E-4,.297E-5,0
STARLINK-31122,2024-011K,2025-02-17T05:44:49.764768,15.04933613,.0001571,53.1611,338.3369,98.1269,261.9899,0,U,58774,999,6160,.23226E-3,.305E-4,0
STARLINK-31123,2024-011L,2025-02-16T23:17:40.070688,15.04925365,.0001373,53.1601,339.5009,79.8884,280.2261,0,U,58775,999,6158,-.53081E-4,-.1037E-4,0
STARLINK-31117,2024-011M,2025-02-17T02:24:17.551296,15.04928388,.0001431,53.1623,338.8893,91.1476,268.9678,0,U,58776,999,6147,.66749E-4,.678E-5,0
STARLINK-31132,2024-011N,2025-02-16T21:43:00.558048,15.30197872,.0001179,53.1597,275.4694,86.1900,273.9235,0,U,58777,999,6249,-.13745E-4,-.766E-5,0
STARLINK-31120,2024-011P,2025-02-17T02:08:52.189152,15.04905855,.000133,53.1620,338.8218,91.0821,269.0321,0,U,58778,999,6147,-.26785E-4,-.66E-5,0
STARLINK-31142,2024-011Q,2025-02-17T11:48:50.114016,15.04929165,.000167,53.1626,337.0689,95.9445,264.1735,0,U,58779,999,6164,.12981E-3,.1581E-4,0
STARLINK-31099,2024-011S,2025-02-17T05:06:11.268288,15.04948735,.0001294,53.1615,338.1668,87.7808,272.3330,0,U,58781,999,6149,.37069E-3,.5036E-4,0
STARLINK-31060,2024-011T,2025-02-17T06:47:12.418368,15.66729132,.0001621,53.1593,251.3599,100.6718,259.4482,0,U,58782,999,6274,.37279E-3,.39601E-3,0
STARLINK-31047,2024-011U,2025-02-16T22:44:36.322368,15.07586315,.0002546,53.1614,338.6619,102.5882,257.5394,0,U,58783,999,6159,.21337E-2,.32687E-3,0
STARLINK-31039,2024-011V,2025-02-17T01:50:19.764096,15.04910297,.0001353,53.1623,338.7362,92.8249,267.2895,0,U,58784,999,6147,-.17447E-3,-.2773E-4,0
STARLINK-31034,2024-011W,2025-02-17T14:00:01.999872,15.42221027,.0000776,53.1584,266.3660,141.1009,120.5248,0,U,58785,999,6255,.28709E-1,.1375672E-1,0
STARLINK-31024,2024-011X,2025-02-17T01:45:39.993120,15.04928061,.0001755,53.1633,338.7131,109.8463,250.2716,0,U,58786,999,6147,.41835E-5,-.218E-5,0
STARLINK-31189,2024-012A,2025-02-16T15:52:04.867680,15.25909961,.0001731,43.0023,183.1162,284.1627,75.9032,0,U,58787,999,6222,.67187E-5,-.82E-6,0
STARLINK-31185,2024-012B,2025-02-17T09:05:40.580160,15.25908280,.0001218,43.0001,179.0465,282.3680,77.7035,0,U,58788,999,6233,.4386E-4,.89E-5,0
STARLINK-31166,2024-012C,2025-02-16T16:11:25.247328,15.25910482,.0001081,43.0039,182.3438,283.1883,76.8848,0,U,58789,999,6223,-.5311E-4,-.1646E-4,0
STARLINK-31187,2024-012D,2025-02-16T15:42:18.874368,15.25904853,.0001415,43.0015,183.0712,282.5735,77.4957,0,U,58790,999,6222,-.48899E-4,-.1536E-4,0
STARLINK-31162,2024-012E,2025-02-17T09:25:13.754784,15.25897646,.0001089,42.9999,179.1455,289.3817,70.6916,0,U,58791,999,6235,-.12248E-4,-.578E-5,0
STARLINK-31184,2024-012G,2025-02-16T17:06:48.125664,15.25920108,.0000917,43.0003,182.6592,271.3544,88.7202,0,U,58793,999,6223,.24347E-3,.6118E-4,0
STARLINK-31192,2024-012H,2025-02-16T16:01:38.645760,15.25904134,.0001397,42.9997,182.2959,275.4349,84.6343,0,U,58794,999,6223,.21489E-3,.5367E-4,0
